STARLINK-30181          
1 57444U 23105Q   26169.97951889 -.00015807  00000+0 -56512-3 0  9999
2 57444  43.0017  51.1536 0001887 273.7382  86.3254 15.27636569161093
STARLINK-30215          
1 57445U 23105R   26169.93778312 -.00000254  00000+0  29361-6 0  9998
2 57445  43.0016  48.2901 0001337 265.6323  94.4376 15.27573327160907
STARLINK-30162          
1 57446U 23105S   26169.33007874 -.00000013  00000+0  90720-5 0  9990
2 57446  43.0063  40.4316 0001333 278.3192  81.7508 15.27580369161108
STARLINK-30178          
1 57447U 23105T   26169.93392748  .00000092  00000+0  12888-4 0  9998
2 57447  43.0047  48.2613 0001276 266.8799  93.1907 15.27575357161064
STARLINK-30196          
1 57448U 23105U   26169.97183508 -.00000199  00000+0  23054-5 0  9992
2 57448  43.0050  51.0901 0001212 276.3814  83.6900 15.27574006160870
STARLINK-30225          
1 57449U 23105V   26169.97569869 -.00001005  00000+0 -27009-4 0  9992
2 57449  43.0052  51.1177 0000898 250.0953 109.9802 15.27579823161091
STARLINK-30217          
1 57450U 23105W   26169.92114256 -.00000144  00000+0  42927-5 0  9994
2 57450  43.0034  37.1765 0001096 266.3990  93.6736 15.27575485161198
STARLINK-30216          
1 57451U 23105X   26169.95177486 -.00000493  00000+0 -83992-5 0  9997
2 57451  43.0027  47.5504 0001209 272.7693  87.3021 15.27572015160916
YAOGAN-36 05A           
1 57452U 23106A   26169.97802257  .00007375  00000+0  30777-3 0  9997
2 57452  35.0066  46.4056 0001149   9.0881 350.9855 15.22958613161422
YAOGAN-36 05B           
1 57454U 23106C   26170.01728781  .00004356  00000+0  21943-3 0  9996
2 57454  34.9937  69.1834 0002169 327.0415  33.0162 15.16616115161144
YAOGAN-36 05C           
1 57456U 23106E   26169.95145927  .00004411  00000+0  22217-3 0  9991
2 57456  34.9938  69.5928 0002170 326.0591  33.9983 15.16615764161139
STARLINK-30165          
1 57457U 23107A   26169.57313544 -.00003631  00000+0 -12267-3 0  9992
2 57457  42.9997 126.5637 0000631 342.9031  17.1799 15.27537135160563
STARLINK-30140          
1 57458U 23107B   26169.61485295 -.00000066  00000+0  71217-5 0  9991
2 57458  43.0025 129.4278 0001440 263.2847  96.7841 15.27579348160541
STARLINK-30077          
1 57460U 23107D   26169.92301311  .00000172  00000+0  15752-4 0  9992
2 57460  42.9985 124.0378 0000691 272.4508  87.6264 15.27575827160638
STARLINK-30229          
1 57461U 23107E   26169.60295107 -.00000132  00000+0  47273-5 0  9994
2 57461  43.0008 133.6055 0001187 263.1649  96.9067 15.27577040160496
STARLINK-30088          
1 57462U 23107F   26169.57824558  .00001667  00000+0  70082-4 0  9995
2 57462  43.0018 126.6010 0000785 255.6882 104.3883 15.27570834160572
STARLINK-30091          
1 57463U 23107G   26169.86113680  .00390030  81662-4  42434-3 0  9997
2 57463  42.9971 112.9815 0002381 240.7950 119.2693 16.09006591160721
STARLINK-30116          
1 57465U 23107J   26169.56795581  .00000533  00000+0  28903-4 0  9996
2 57465  43.0021 126.5235 0001244 268.5847  91.4862 15.27576915160571
STARLINK-30092          
1 57467U 23107L   26169.57180808  .00000338  00000+0  21797-4 0  9996
2 57467  43.0020 126.5514 0001255 271.2797  88.7911 15.27578343160570
STARLINK-30039          
1 57468U 23107M   26169.57562837  .00018126  00000+0  66627-3 0  9997
2 57468  43.0035 126.5805 0000524 354.0573   6.0272 15.27595640160572
STARLINK-30171          
1 57469U 23107N   26169.61871174 -.00000168  00000+0  34492-5 0  9995
2 57469  43.0035 129.4544 0002257 273.4715  86.5878 15.27575497160542
STARLINK-30186          
1 57470U 23107P   26170.00002315  .00056889  00000+0  13891-2 0  9992
2 57470  42.9999 130.9609 0000957 266.1274 282.9066 15.40038156  5869
STARLINK-30204          
1 57472U 23107R   26169.29613073  .00000527  00000+0  28658-4 0  9999
2 57472  43.0020 127.9206 0001257 269.7531  90.3177 15.27577445160530
STARLINK-30155          
1 57475U 23107U   26169.59735859  .00000437  00000+0  25402-4 0  9996
2 57475  43.0050 125.8864 0001511 268.1011  91.9668 15.27580077160584
STARLINK-30161          
1 57476U 23107V   26169.60121552  .00000238  00000+0  18196-4 0  9999
2 57476  43.0057 125.9113 0001409 261.1214  98.9478 15.27577968160585
STARLINK-30176          
1 57477U 23107W   26168.95120847  .00017861  00000+0  65671-3 0  9992
2 57477  43.0024 129.6315 0002186 272.2860  87.7741 15.27593595160480
JUPITER 3 (ECHOSTAR 24) 
1 57479U 23108A   26169.52351567  .00000000  00000+0  00000+0 0  9992
2 57479   0.0215 355.2271 0001266  87.4858 277.3015  1.00268776 10656
FENGYUN 3F              
1 57490U 23111A   26169.94724640  .00000047  00000+0  42379-4 0  9992
2 57490  98.6836 239.9232 0001586  92.2686 267.8673 14.19939406149111
GALAXY 37 (G-37)        
1 57493U 23112A   26169.65585102  .00000042  00000+0  00000+0 0  9997
2 57493   0.0185 340.0371 0001893 104.8050 291.1539  1.00269676 10559
STARLINK-30154          
1 57495U 23113A   26169.68855741  .00000189  00000+0  16388-4 0  9995
2 57495  43.0003 165.5020 0001221 275.0984  84.9728 15.27575085158964
