OBJECT_NAME,OBJECT_ID,EPOCH,MEAN_MOTION,ECCENTRICITY,INCLINATION,RA_OF_ASC_NODE,ARG_OF_PERICENTER,MEAN_ANOMALY,EPHEMERIS_TYPE,CLASSIFICATION_TYPE,NORAD_CAT_ID,ELEMENT_SET_NO,REV_AT_EPOCH,BSTAR,MEAN_MOTION_DOT,MEAN_MOTION_DDOT
STARLINK-30181,2023-105Q,2026-06-18T23:30:30.432096,15.27636569,.00018879,43.0017,51.1536,273.7382,86.3254,0,U,57444,999,16109,-.56511507E-3,-.15807E-3,0
STARLINK-30215,2023-105R,2026-06-18T22:30:24.461568,15.27573327,.0001337,43.0016,48.2901,265.6323,94.4376,0,U,57445,999,16090,.293611E-6,-.254E-5,0
STARLINK-30162,2023-105S,2026-06-18T07:55:18.803136,15.27580369,.0001333,43.0063,40.4316,278.3192,81.7508,0,U,57446,999,16110,.9072E-5,-.13E-6,0
STARLINK-30178,2023-105T,2026-06-18T22:24:51.334272,15.27575357,.00012769,43.0047,48.2613,266.8799,93.1907,0,U,57447,999,16106,.12888428E-4,.92E-6,0
STARLINK-30196,2023-105U,2026-06-18T23:19:26.550912,15.27574006,.00012129,43.0050,51.0901,276.3814,83.6900,0,U,57448,999,16087,.2305408E-5,-.199E-5,0
STARLINK-30225,2023-105V,2026-06-18T23:25:00.366816,15.27579823,.00008989,43.0052,51.1177,250.0953,109.9802,0,U,57449,999,16109,-.27009139E-4,-.1005E-4,0
STARLINK-30217,2023-105W,2026-06-18T22:06:26.717184,15.27575485,.00010969,43.0034,37.1765,266.3990,93.6736,0,U,57450,999,16119,.42927E-5,-.144E-5,0
STARLINK-30216,2023-105X,2026-06-18T22:50:33.347904,15.27572015,.0001209,43.0027,47.5504,272.7693,87.3021,0,U,57451,999,16091,-.8399247E-5,-.493E-5,0
YAOGAN-36 05A,2023-106A,2026-06-18T23:28:21.150048,15.22958613,.00011497,35.0066,46.4056,9.0881,350.9855,0,U,57452,999,16142,.30776784E-3,.7375E-4,0
YAOGAN-36 05B,2023-106C,2026-06-19T00:24:53.666784,15.16616115,.00021691,34.9937,69.1834,327.0415,33.0162,0,U,57454,999,16114,.21942509E-3,.4356E-4,0
YAOGAN-36 05C,2023-106E,2026-06-18T22:50:06.080928,15.16615764,.00021705,34.9938,69.5928,326.0591,33.9983,0,U,57456,999,16113,.22216816E-3,.4411E-4,0
STARLINK-30165,2023-107A,2026-06-18T13:45:18.902016,15.27537135,.0000631,42.9997,126.5637,342.9031,17.1799,0,U,57457,999,16056,-.12267E-3,-.3631E-4,0
STARLINK-30140,2023-107B,2026-06-18T14:45:23.294880,15.27579348,.00014409,43.0025,129.4278,263.2847,96.7841,0,U,57458,999,16054,.7121722E-5,-.66E-6,0
STARLINK-30077,2023-107D,2026-06-18T22:09:08.332704,15.27575827,.00006912,42.9985,124.0378,272.4508,87.6264,0,U,57460,999,16063,.15751566E-4,.172E-5,0
STARLINK-30229,2023-107E,2026-06-18T14:28:14.972448,15.27577040,.00011877,43.0008,133.6055,263.1649,96.9067,0,U,57461,999,16049,.4727331E-5,-.132E-5,0
STARLINK-30088,2023-107F,2026-06-18T13:52:40.418112,15.27570834,.0000785,43.0018,126.6010,255.6882,104.3883,0,U,57462,999,16057,.70082E-4,.1667E-4,0
STARLINK-30091,2023-107G,2026-06-18T20:40:02.219520,16.09006591,.00023819,42.9971,112.9815,240.7950,119.2693,0,U,57463,999,16072,.4243406E-3,.39003E-2,.81662217E-4
STARLINK-30116,2023-107J,2026-06-18T13:37:51.381984,15.27576915,.0001244,43.0021,126.5235,268.5847,91.4862,0,U,57465,999,16057,.28903E-4,.533E-5,0
STARLINK-30092,2023-107L,2026-06-18T13:43:24.218112,15.27578343,.0001255,43.0020,126.5514,271.2797,88.7911,0,U,57467,999,16057,.21797E-4,.338E-5,0
STARLINK-30039,2023-107M,2026-06-18T13:48:54.291168,15.27595640,.0000524,43.0035,126.5805,354.0573,6.0272,0,U,57468,999,16057,.66627E-3,.18126E-3,0
STARLINK-30171,2023-107N,2026-06-18T14:50:56.694336,15.27575497,.00022571,43.0035,129.4544,273.4715,86.5878,0,U,57469,999,16054,.3449175E-5,-.168E-5,0
STARLINK-30186,2023-107P,2026-06-19T00:00:02.000160,15.40038156,.00009579,42.9999,130.9609,266.1274,282.9066,0,U,57470,999,586,.13890559E-2,.56889E-3,0
STARLINK-30204,2023-107R,2026-06-18T07:06:25.695072,15.27577445,.0001257,43.0020,127.9206,269.7531,90.3177,0,U,57472,999,16053,.28658E-4,.527E-5,0
STARLINK-30155,2023-107U,2026-06-18T14:20:11.782176,15.27580077,.0001511,43.0050,125.8864,268.1011,91.9668,0,U,57475,999,16058,.25402E-4,.437E-5,0
STARLINK-30161,2023-107V,2026-06-18T14:25:45.020928,15.27577968,.00014098,43.0057,125.9113,261.1214,98.9478,0,U,57476,999,16058,.18195804E-4,.238E-5,0
STARLINK-30176,2023-107W,2026-06-17T22:49:44.411808,15.27593595,.00021862,43.0024,129.6315,272.2860,87.7741,0,U,57477,999,16048,.65670923E-3,.17861E-3,0
JUPITER 3 (ECHOSTAR 24),2023-108A,2026-06-18T12:33:51.753888,1.00268776,.00012666,0.0215,355.2271,87.4858,277.3015,0,U,57479,999,1065,0,0,0
FENGYUN 3F,2023-111A,2026-06-18T22:44:02.088960,14.19939406,.00015863,98.6836,239.9232,92.2686,267.8673,0,U,57490,999,14911,.42378578E-4,.47E-6,0
GALAXY 37 (G-37),2023-112A,2026-06-18T15:44:25.528128,1.00269676,.00018937,0.0185,340.0371,104.8050,291.1539,0,U,57493,999,1055,0,.42E-6,0
STARLINK-30154,2023-113A,2026-06-18T16:31:31.360224,15.27575085,.00012211,43.0003,165.5020,275.0984,84.9728,0,U,57495,999,15896,.16388416E-4,.189E-5,0
